STARLINK-4376           
1 53216U 22084AD  26068.74587419 -.00000413  00000+0 -27617-4 0  9996
2 53216  97.6035 130.2554 0001449 193.6697 166.4488 15.01263228199329
CHAMRAN-1               
1 61072U 24165B   26068.91010681  .00007263  00000+0  44320-3 0  9995
2 61072  64.0789   8.4365 0045019 310.8781  48.8437 15.10235792 81665
